{"type": "FeatureCollection", "features": [ {"type": "Feature", "properties": {"norad_id": 34409, "name": "COSMOS 2251 DEB", "group": "cosmos-2251-debris", "lat": -22.081566565035775, "lon": 109.03758091576086, "alt_km": 753.8617873892817, "timestamp": "2025-12-25T14:48:25.166633+00:00", "meta": {"OBJECT_NAME": "COSMOS 2251 DEB", "OBJECT_ID": "1993-036RA", "EPOCH": "2025-12-24T21:42:50.607360", "MEAN_MOTION": 14.58056072, "ECCENTRICITY": 0.008039, "INCLINATION": 74.0637, "RA_OF_ASC_NODE": 283.7332, "ARG_OF_PERICENTER": 354.9002, "MEAN_ANOMALY": 71.6273, "EPHEMERIS_TYPE": 0, "CLASSIFICATION_TYPE": "U", "NORAD_CAT_ID": 34409, "ELEMENT_SET_NO": 999, "REV_AT_EPOCH": 89370, "BSTAR": 0.00025381, "MEAN_MOTION_DOT": 1.189e-05, "MEAN_MOTION_DDOT": 0}, "tle": {"line1": "1 34409U 93036RA  25358.90475240  .00001189  00000+0  25381-3 0  9995", "line2": "2 34409  74.0637 283.7332 0080390 354.9002  71.6273 14.58056072893701"}}, "geometry": {"type": "Point", "coordinates": [109.03758091576086, -22.081566565035775]}}, {"type": "Feature", "properties": {"norad_id": 34410, "name": "COSMOS 2251 DEB", "group": "cosmos-2251-debris", "lat": -28.4716871824565, "lon": 63.387164032324904, "alt_km": 521.5857888346882, "timestamp": "2025-12-25T14:48:25.166642+00:00", "meta": {"OBJECT_NAME": "COSMOS 2251 DEB", "OBJECT_ID": "1993-036RB", "EPOCH": "2025-12-24T15:54:46.238688", "MEAN_MOTION": 15.20004052, "ECCENTRICITY": 0.00211644, "INCLINATION": 73.7357, "RA_OF_ASC_NODE": 236.3127, "ARG_OF_PERICENTER": 75.5551, "MEAN_ANOMALY": 316.1115, "EPHEMERIS_TYPE": 0, "CLASSIFICATION_TYPE": "U", "NORAD_CAT_ID": 34410, "ELEMENT_SET_NO": 999, "REV_AT_EPOCH": 89955, "BSTAR": 0.0023683134, "MEAN_MOTION_DOT": 0.00051663, "MEAN_MOTION_DDOT": 0}, "tle": {"line1": "1 34410U 93036RB  25358.66303517  .00051663  00000+0  23683-2 0  9991", "line2": "2 34410  73.7357 236.3127 0021164  75.5551 316.1115 15.20004052899555"}}, "geometry": {"type": "Point", "coordinates": [63.387164032324904, -28.4716871824565]}}, {"type": "Feature", "properties": {"norad_id": 34412, "name": "COSMOS 2251 DEB", "group": "cosmos-2251-debris", "lat": -73.93798294613987, "lon": -150.2854068545802, "alt_km": 811.6981257024563, "timestamp": "2025-12-25T14:48:25.166651+00:00", "meta": {"OBJECT_NAME": "COSMOS 2251 DEB", "OBJECT_ID": "1993-036RD", "EPOCH": "2025-12-24T06:02:29.414112", "MEAN_MOTION": 14.47276709, "ECCENTRICITY": 0.01876387, "INCLINATION": 73.949, "RA_OF_ASC_NODE": 302.9581, "ARG_OF_PERICENTER": 35.3619, "MEAN_ANOMALY": 325.9814, "EPHEMERIS_TYPE": 0, "CLASSIFICATION_TYPE": "U", "NORAD_CAT_ID": 34412, "ELEMENT_SET_NO": 999, "REV_AT_EPOCH": 87817, "BSTAR": 0.0018649119, "MEAN_MOTION_DOT": 8.49e-05, "MEAN_MOTION_DDOT": 0}, "tle": {"line1": "1 34412U 93036RD  25358.25172933  .00008490  00000+0  18649-2 0  9990", "line2": "2 34412  73.9490 302.9581 0187638  35.3619 325.9814 14.47276709878176"}}, "geometry": {"type": "Point", "coordinates": [-150.2854068545802, -73.93798294613987]}}, {"type": "Feature", "properties": {"norad_id": 34413, "name": "COSMOS 2251 DEB", "group": "cosmos-2251-debris", "lat": -67.46189082009626, "lon": -162.14321199767832, "alt_km": 744.3706805539969, "timestamp": "2025-12-25T14:48:25.166661+00:00", "meta": {"OBJECT_NAME": "COSMOS 2251 DEB", "OBJECT_ID": "1993-036RE", "EPOCH": "2025-12-24T22:25:10.363872", "MEAN_MOTION": 14.291856, "ECCENTRICITY": 0.0090951, "INCLINATION": 74.0301, "RA_OF_ASC_NODE": 242.7297, "ARG_OF_PERICENTER": 316.973, "MEAN_ANOMALY": 57.9695, "EPHEMERIS_TYPE": 0, "CLASSIFICATION_TYPE": "U", "NORAD_CAT_ID": 34413, "ELEMENT_SET_NO": 999, "REV_AT_EPOCH": 87305, "BSTAR": 0.0013959, "MEAN_MOTION_DOT": 3.681e-05, "MEAN_MOTION_DDOT": 0}, "tle": {"line1": "1 34413U 93036RE  25358.93414773  .00003681  00000+0  13959-2 0  9993", "line2": "2 34413  74.0301 242.7297 0090951 316.9730  57.9695 14.29185600873058"}}, "geometry": {"type": "Point", "coordinates": [-162.14321199767832, -67.46189082009626]}}, {"type": "Feature", "properties": {"norad_id": 34420, "name": "COSMOS 2251 DEB", "group": "cosmos-2251-debris", "lat": 31.818557270100413, "lon": 89.28400970584019, "alt_km": 735.9113344674151, "timestamp": "2025-12-25T14:48:25.166670+00:00", "meta": {"OBJECT_NAME": "COSMOS 2251 DEB", "OBJECT_ID": "1993-036RM", "EPOCH": "2025-12-25T01:53:27.691872", "MEAN_MOTION": 14.68332611, "ECCENTRICITY": 0.01060549, "INCLINATION": 74.0333, "RA_OF_ASC_NODE": 80.0919, "ARG_OF_PERICENTER": 198.2983, "MEAN_ANOMALY": 231.8315, "EPHEMERIS_TYPE": 0, "CLASSIFICATION_TYPE": "U", "NORAD_CAT_ID": 34420, "ELEMENT_SET_NO": 999, "REV_AT_EPOCH": 89951, "BSTAR": 0.00021975448, "MEAN_MOTION_DOT": 1.346e-05, "MEAN_MOTION_DDOT": 0}, "tle": {"line1": "1 34420U 93036RM  25359.07879273  .00001346  00000+0  21975-3 0  9991", "line2": "2 34420  74.0333  80.0919 0106054 198.2983 231.8315 14.68332611899518"}}, "geometry": {"type": "Point", "coordinates": [89.28400970584019, 31.818557270100413]}}, {"type": "Feature", "properties": {"norad_id": 34425, "name": "COSMOS 2251 DEB", "group": "cosmos-2251-debris", "lat": -15.774747335077823, "lon": -145.52313331151453, "alt_km": 678.1883953674678, "timestamp": "2025-12-25T14:48:25.166679+00:00", "meta": {"OBJECT_NAME": "COSMOS 2251 DEB", "OBJECT_ID": "1993-036RS", "EPOCH": "2025-12-25T02:25:09.157152", "MEAN_MOTION": 14.62192025, "ECCENTRICITY": 0.00241403, "INCLINATION": 74.019, "RA_OF_ASC_NODE": 30.8223, "ARG_OF_PERICENTER": 153.7433, "MEAN_ANOMALY": 206.4963, "EPHEMERIS_TYPE": 0, "CLASSIFICATION_TYPE": "U", "NORAD_CAT_ID": 34425, "ELEMENT_SET_NO": 999, "REV_AT_EPOCH": 88921, "BSTAR": 0.00054270325, "MEAN_MOTION_DOT": 2.714e-05, "MEAN_MOTION_DDOT": 0}, "tle": {"line1": "1 34425U 93036RS  25359.10080043  .00002714  00000+0  54270-3 0  9993", "line2": "2 34425  74.0190  30.8223 0024140 153.7433 206.4963 14.62192025889216"}}, "geometry": {"type": "Point", "coordinates": [-145.52313331151453, -15.774747335077823]}}, {"type": "Feature", "properties": {"norad_id": 34429, "name": "COSMOS 2251 DEB", "group": "cosmos-2251-debris", "lat": 72.9596958270188, "lon": -109.84789321794648, "alt_km": 420.6311819929024, "timestamp": "2025-12-25T14:48:25.166688+00:00", "meta": {"OBJECT_NAME": "COSMOS 2251 DEB", "OBJECT_ID": "1993-036RW", "EPOCH": "2025-12-24T12:17:46.121568", "MEAN_MOTION": 15.4672174, "ECCENTRICITY": 0.001324, "INCLINATION": 73.969, "RA_OF_ASC_NODE": 142.313, "ARG_OF_PERICENTER": 345.0804, "MEAN_ANOMALY": 81.2435, "EPHEMERIS_TYPE": 0, "CLASSIFICATION_TYPE": "U", "NORAD_CAT_ID": 34429, "ELEMENT_SET_NO": 999, "REV_AT_EPOCH": 89630, "BSTAR": 0.0059919728, "MEAN_MOTION_DOT": 0.00312947, "MEAN_MOTION_DDOT": 0}, "tle": {"line1": "1 34429U 93036RW  25358.51233937  .00312947  00000+0  59920-2 0  9991", "line2": "2 34429  73.9690 142.3130 0013240 345.0804  81.2435 15.46721740896302"}}, "geometry": {"type": "Point", "coordinates": [-109.84789321794648, 72.9596958270188]}}, {"type": "Feature", "properties": {"norad_id": 34430, "name": "COSMOS 2251 DEB", "group": "cosmos-2251-debris", "lat": 14.59615460561078, "lon": -76.12657231585766, "alt_km": 722.050458066321, "timestamp": "2025-12-25T14:48:25.166697+00:00", "meta": {"OBJECT_NAME": "COSMOS 2251 DEB", "OBJECT_ID": "1993-036RX", "EPOCH": "2025-12-25T04:43:52.074336", "MEAN_MOTION": 14.39668672, "ECCENTRICITY": 0.00609066, "INCLINATION": 74.0519, "RA_OF_ASC_NODE": 280.3773, "ARG_OF_PERICENTER": 347.1398, "MEAN_ANOMALY": 12.8199, "EPHEMERIS_TYPE": 0, "CLASSIFICATION_TYPE": "U", "NORAD_CAT_ID": 34430, "ELEMENT_SET_NO": 999, "REV_AT_EPOCH": 88134, "BSTAR": 0.00045650938, "MEAN_MOTION_DOT": 1.433e-05, "MEAN_MOTION_DDOT": 0}, "tle": {"line1": "1 34430U 93036RX  25359.19713049  .00001433  00000+0  45651-3 0  9997", "line2": "2 34430  74.0519 280.3773 0060906 347.1398  12.8199 14.39668672881344"}}, "geometry": {"type": "Point", "coordinates": [-76.12657231585766, 14.59615460561078]}}, {"type": "Feature", "properties": {"norad_id": 34431, "name": "COSMOS 2251 DEB", "group": "cosmos-2251-debris", "lat": 43.76481127945361, "lon": -43.98102158144679, "alt_km": 743.0772468801988, "timestamp": "2025-12-25T14:48:25.166706+00:00", "meta": {"OBJECT_NAME": "COSMOS 2251 DEB", "OBJECT_ID": "1993-036RY", "EPOCH": "2025-12-24T19:42:02.444832", "MEAN_MOTION": 14.28814588, "ECCENTRICITY": 0.00677003, "INCLINATION": 74.074, "RA_OF_ASC_NODE": 153.331, "ARG_OF_PERICENTER": 135.8066, "MEAN_ANOMALY": 224.852, "EPHEMERIS_TYPE": 0, "CLASSIFICATION_TYPE": "U", "NORAD_CAT_ID": 34431, "ELEMENT_SET_NO": 999, "REV_AT_EPOCH": 87315, "BSTAR": 0.00067957394, "MEAN_MOTION_DOT": 1.731e-05, "MEAN_MOTION_DDOT": 0}, "tle": {"line1": "1 34431U 93036RY  25358.82086163  .00001731  00000+0  67957-3 0  9991", "line2": "2 34431  74.0740 153.3310 0067700 135.8066 224.8520 14.28814588873150"}}, "geometry": {"type": "Point", "coordinates": [-43.98102158144679, 43.76481127945361]}}, {"type": "Feature", "properties": {"norad_id": 34432, "name": "COSMOS 2251 DEB", "group": "cosmos-2251-debris", "lat": 20.20519731225749, "lon": 85.76777003000365, "alt_km": 981.7033342344785, "timestamp": "2025-12-25T14:48:25.166715+00:00", "meta": {"OBJECT_NAME": "COSMOS 2251 DEB", "OBJECT_ID": "1993-036RZ", "EPOCH": "2025-12-25T00:10:24.820608", "MEAN_MOTION": 14.02956192, "ECCENTRICITY": 0.01813718, "INCLINATION": 73.8286, "RA_OF_ASC_NODE": 80.7113, "ARG_OF_PERICENTER": 161.4566, "MEAN_ANOMALY": 22.7684, "EPHEMERIS_TYPE": 0, "CLASSIFICATION_TYPE": "U", "NORAD_CAT_ID": 34432, "ELEMENT_SET_NO": 999, "REV_AT_EPOCH": 85856, "BSTAR": 0.0011432616, "MEAN_MOTION_DOT": 2.026e-05, "MEAN_MOTION_DDOT": 0}, "tle": {"line1": "1 34432U 93036RZ  25359.00723172  .00002026  00000+0  11433-2 0  9996", "line2": "2 34432  73.8286  80.7113 0181371 161.4566  22.7684 14.02956192858562"}}, "geometry": {"type": "Point", "coordinates": [85.76777003000365, 20.20519731225749]}}]}